NORAD_CAT_ID,OBJECT_NAME,OBJECT_TYPE,EPOCH,MEAN_MOTION,ECCENTRICITY,INCLINATION,RA_OF_ASC_NODE,ARG_OF_PERICENTER,MEAN_ANOMALY,BSTAR,MEAN_MOTION_DOT,MEAN_MOTION_DDOT,TLE_LINE0,TLE_LINE1,TLE_LINE2,SEMIMAJOR_AXIS,PERIOD,APOGEE,PERIGEE,DECAYED
52102.0,STARLINK-3709,PAYLOAD,2023-01-26 07:53:00,15.08903227,0.0001844,53.215,149.4324,25.9054,334.20300000000003,-0.00088082,-0.00014304,0.0,0 STARLINK-3709,1 52102U 22029Q   23026.32847935 -.00014304  00000-0 -88082-3 0  9992,2 52102  53.2150 149.4324 0001844  25.9054 334.2030 15.08903227 48933,6917.687,95.434,540.828,538.2769999999999,0.0
52102.0,STARLINK-3709,PAYLOAD,2023-01-26 14:14:34,15.08834315,0.0001483,53.2173,148.2367,113.1544,246.9605,-3.2394e-05,-8.03e-06,0.0,0 STARLINK-3709,1 52102U 22029Q   23026.59345133 -.00000803  00000-0 -32394-4 0  9999,2 52102  53.2173 148.2367 0001483 113.1544 246.9605 15.08834315 48977,6917.898,95.438,540.789,538.737,0.0
52102.0,STARLINK-3709,PAYLOAD,2023-01-26 15:49:57,15.08829344,0.0001525,53.215,147.9408,70.6135,289.5022,-4.7066000000000006e-05,-1.037e-05,0.0,0 STARLINK-3709,1 52102U 22029Q   23026.65969630 -.00001037  00000-0 -47066-4 0  9992,2 52102  53.2150 147.9408 0001525  70.6135 289.5022 15.08829344 48987,6917.9130000000005,95.438,540.8330000000001,538.7230000000001,0.0
52102.0,STARLINK-3709,PAYLOAD,2023-01-27 07:43:48,15.08846926,0.0001273,53.2158,144.9667,89.0807,271.0331,-0.00015864,-2.812e-05,0.0,0 STARLINK-3709,1 52102U 22029Q   23027.32208994 -.00002812  00000-0 -15864-3 0  9998,2 52102  53.2158 144.9667 0001273  89.0807 271.0331 15.08846926 49085,6917.859,95.437,540.605,538.844,0.0
52102.0,STARLINK-3709,PAYLOAD,2023-01-27 14:05:20,15.08850732,0.0001226,53.2157,143.7769,101.0368,259.0762,-0.00011064,-2.049e-05,0.0,0 STARLINK-3709,1 52102U 22029Q   23027.58704377 -.00002049  00000-0 -11064-3 0  9992,2 52102  53.2157 143.7769 0001226 101.0368 259.0762 15.08850732 49128,6917.848000000001,95.437,540.561,538.864,0.0
52102.0,STARLINK-3709,PAYLOAD,2023-01-28 12:20:45,15.08827973,0.0001411,53.2161,139.6151,81.9921,278.1232,0.00016714,2.372e-05,0.0,0 STARLINK-3709,1 52102U 22029Q   23028.51441390  .00002372  00000-0  16714-3 0  9993,2 52102  53.2161 139.6151 0001411  81.9921 278.1232 15.08827973 49269,6917.917,95.438,540.758,538.806,0.0
52102.0,STARLINK-3709,PAYLOAD,2023-01-28 13:56:08,15.08835247,0.0001418,53.2169,139.3168,84.3905,275.7249,0.00011416,1.529e-05,0.0,0 STARLINK-3709,1 52102U 22029Q   23028.58065145  .00001529  00000-0  11416-3 0  9997,2 52102  53.2169 139.3168 0001418  84.3905 275.7249 15.08835247 49273,6917.895,95.438,540.741,538.779,0.0
52102.0,STARLINK-3709,PAYLOAD,2023-01-28 15:31:31,15.08835388,0.0001378,53.2164,139.0186,92.3085,267.8065,0.000127,1.734e-05,0.0,0 STARLINK-3709,1 52102U 22029Q   23028.64689067  .00001734  00000-0  12700-3 0  9994,2 52102  53.2164 139.0186 0001378  92.3085 267.8065 15.08835388 49283,6917.894,95.438,540.713,538.806,0.0
52102.0,STARLINK-3709,PAYLOAD,2023-01-29 16:57:41,15.08836841,0.000135,53.2165,134.2612,102.2738,257.8406,1.8095e-05,0.0,0.0,0 STARLINK-3709,1 52102U 22029Q   23029.70673597  .00000000  00000-0  18095-4 0  9992,2 52102  53.2165 134.2612 0001350 102.2738 257.8406 15.08836841 49442,6917.89,95.438,540.689,538.821,0.0
52102.0,STARLINK-3709,PAYLOAD,2023-01-30 12:02:19,15.08838447,0.0001257,53.2165,130.6938,92.2055,267.9081,6.2545e-05,7.08e-06,0.0,0 STARLINK-3709,1 52102U 22029Q   23030.50161609  .00000708  00000-0  62545-4 0  9992,2 52102  53.2165 130.6938 0001257  92.2055 267.9081 15.08838447 49567,6917.885,95.438,540.62,538.881,0.0
52102.0,STARLINK-3709,PAYLOAD,2023-01-30 15:13:05,15.0884491,0.000114,53.2163,130.0988,96.2834,263.8288,4.3473e-05,4.04e-06,0.0,0 STARLINK-3709,1 52102U 22029Q   23030.63409234  .00000404  00000-0  43473-4 0  9997,2 52102  53.2163 130.0988 0001140  96.2834 263.8288 15.08844910 49582,6917.865,95.437,540.519,538.942,0.0
52102.0,STARLINK-3709,PAYLOAD,2023-01-30 23:10:01,15.08837583,0.0001189,53.2166,128.6116,90.8667,269.2462,-2.9246e-05,-7.53e-06,0.0,0 STARLINK-3709,1 52102U 22029Q   23030.96529877 -.00000753  00000-0 -29246-4 0  9990,2 52102  53.2166 128.6116 0001189  90.8667 269.2462 15.08837583 49636,6917.888,95.438,540.575,538.93,0.0
52102.0,STARLINK-3709,PAYLOAD,2023-01-31 11:53:07,15.08834995,0.0001142,53.2162,126.2333,101.605,258.507,3.9588e-05,3.42e-06,0.0,0 STARLINK-3709,1 52102U 22029Q   23031.49522124  .00000342  00000-0  39588-4 0  9999,2 52102  53.2162 126.2333 0001142 101.6050 258.5070 15.08834995 49712,6917.896,95.438,540.551,538.971,0.0
52102.0,STARLINK-3709,PAYLOAD,2023-01-31 15:03:53,15.08837482,0.0001073,53.2165,125.6391,99.3166,260.7947,6.306e-05,7.16e-06,0.0,0 STARLINK-3709,1 52102U 22029Q   23031.62769901  .00000716  00000-0  63060-4 0  9997,2 52102  53.2165 125.6391 0001073  99.3166 260.7947 15.08837482 49730,6917.888,95.438,540.495,539.011,0.0
52102.0,STARLINK-3709,PAYLOAD,2023-02-01 11:43:54,15.08839903,0.0001212,53.2176,121.7744,97.8968,262.2162,3.8685e-05,3.28e-06,0.0,0 STARLINK-3709,1 52102U 22029Q   23032.48881948  .00000328  00000-0  38685-4 0  9992,2 52102  53.2176 121.7744 0001212  97.8968 262.2162 15.08839903 49869,6917.881,95.438,540.584,538.907,0.0
52102.0,STARLINK-3709,PAYLOAD,2023-02-01 13:19:17,15.08843055,0.0001168,53.2172,121.476,83.3324,276.7801,2.8533e-05,1.66e-06,0.0,0 STARLINK-3709,1 52102U 22029Q   23032.55505800  .00000166  00000-0  28533-4 0  9991,2 52102  53.2172 121.4760 0001168  83.3324 276.7801 15.08843055 49870,6917.871,95.437,540.544,538.928,0.0
52102.0,STARLINK-3709,PAYLOAD,2023-02-02 13:10:04,15.08838987,0.0001311,53.2182,117.0162,91.3388,268.7754,3.3708e-05,2.49e-06,0.0,0 STARLINK-3709,1 52102U 22029Q   23033.54866255  .00000249  00000-0  33708-4 0  9997,2 52102  53.2182 117.0162 0001311  91.3388 268.7754 15.08838987 50022,6917.883,95.438,540.655,538.842,0.0
52102.0,STARLINK-3709,PAYLOAD,2023-02-02 14:45:27,15.08837679,0.000123,53.2181,116.719,85.627,274.4862,5.4455e-05,5.79e-06,0.0,0 STARLINK-3709,1 52102U 22029Q   23033.61490296  .00000579  00000-0  54455-4 0  9991,2 52102  53.2181 116.7190 0001230  85.6270 274.4862 15.08837679 50036,6917.887,95.438,540.603,538.902,0.0
52102.0,STARLINK-3709,PAYLOAD,2023-02-03 09:50:05,15.08836887,0.0001295,53.2171,113.1506,85.4999,274.6141,2.2646e-05,7.3e-07,0.0,0 STARLINK-3709,1 52102U 22029Q   23034.40978589  .00000073  00000-0  22646-4 0  9991,2 52102  53.2171 113.1506 0001295  85.4999 274.6141 15.08836887 50159,6917.89,95.438,540.651,538.859,0.0
52102.0,STARLINK-3709,PAYLOAD,2023-02-04 11:16:14,15.08893555,0.0001202,53.2166,108.3932,81.6967,278.4162,-0.00055646,-9.146e-05,0.0,0 STARLINK-3709,1 52102U 22029Q   23035.46960665 -.00009146  00000-0 -55646-3 0  9991,2 52102  53.2166 108.3932 0001202  81.6967 278.4162 15.08893555 50311,6917.717,95.434,540.413,538.75,0.0
52102.0,STARLINK-3709,PAYLOAD,2023-02-05 11:07:02,15.08836384,0.0001271,53.2165,103.9312,106.4798,253.6334,7.1536e-06,-1.74e-06,0.0,0 STARLINK-3709,1 52102U 22029Q   23036.46322589 -.00000174  00000-0  71536-5 0  9998,2 52102  53.2165 103.9312 0001271 106.4798 253.6334 15.08836384 50466,6917.891,95.438,540.636,538.877,0.0
52102.0,STARLINK-3709,PAYLOAD,2023-02-06 10:57:48,15.08849961,0.0001351,53.2173,99.4701,120.7223,239.3903,3.0059e-05,1.91e-06,0.0,0 STARLINK-3709,1 52102U 22029Q   23037.45681652  .00000191  00000-0  30059-4 0  9999,2 52102  53.2173  99.4701 0001351 120.7223 239.3903 15.08849961 50612,6917.85,95.437,540.65,538.78,0.0
52102.0,STARLINK-3709,PAYLOAD,2023-02-06 12:33:12,15.08849906,0.0001164,53.2181,99.1766,96.767,263.3455,6.5704e-05,7.58e-06,0.0,0 STARLINK-3709,1 52102U 22029Q   23037.52305667  .00000758  00000-0  65704-4 0  9990,2 52102  53.2181  99.1766 0001164  96.7670 263.3455 15.08849906 50628,6917.85,95.437,540.52,538.91,0.0
52102.0,STARLINK-3709,PAYLOAD,2023-02-06 20:30:07,15.08852239,0.0001115,53.2171,97.6846,83.3798,276.7321,2.6045e-05,1.27e-06,0.0,0 STARLINK-3709,1 52102U 22029Q   23037.85425265  .00000127  00000-0  26045-4 0  9998,2 52102  53.2171  97.6846 0001115  83.3798 276.7321 15.08852239 50676,6917.843,95.437,540.479,538.937,0.0
52102.0,STARLINK-3709,PAYLOAD,2023-02-07 10:48:35,15.08845371,0.0001223,53.2176,95.0118,104.0048,256.108,0.00011524,1.547e-05,0.0,0 STARLINK-3709,1 52102U 22029Q   23038.45041661  .00001547  00000-0  11524-3 0  9991,2 52102  53.2176  95.0118 0001223 104.0048 256.1080 15.08845371 50767,6917.864,95.437,540.575,538.883,0.0
52102.0,STARLINK-3709,PAYLOAD,2023-02-07 13:59:21,15.0885248,9.25e-05,53.2166,94.4139,103.7289,256.3806,0.00017593,2.514e-05,0.0,0 STARLINK-3709,1 52102U 22029Q   23038.58288920  .00002514  00000-0  17593-3 0  9993,2 52102  53.2166  94.4139 0000925 103.7289 256.3806 15.08852480 50782,6917.842,95.437,540.347,539.067,0.0
52102.0,STARLINK-3709,PAYLOAD,2023-02-07 20:20:55,15.08832775,0.0001375,53.2172,93.2252,122.9551,237.1573,-3.9472e-05,-9.16e-06,0.0,0 STARLINK-3709,1 52102U 22029Q   23038.84786826 -.00000916  00000-0 -39472-4 0  9997,2 52102  53.2172  93.2252 0001375 122.9551 237.1573 15.08832775 50825,6917.902,95.438,540.719,538.816,0.0
52102.0,STARLINK-3709,PAYLOAD,2023-02-08 10:39:23,15.08841449,0.0001458,53.2178,90.5464,94.8138,265.3021,-2.2459e-05,-6.45e-06,0.0,0 STARLINK-3709,1 52102U 22029Q   23039.44402491 -.00000645  00000-0 -22459-4 0  9993,2 52102  53.2178  90.5464 0001458  94.8138 265.3021 15.08841449 50915,6917.876,95.437,540.75,538.732,0.0
52102.0,STARLINK-3709,PAYLOAD,2023-02-09 10:30:11,15.0884153,0.000172,53.2185,86.0892,69.1839,290.9337,8.6869e-06,-1.5e-06,0.0,0 STARLINK-3709,1 52102U 22029Q   23040.43762853 -.00000150  00000-0  86869-5 0  9991,2 52102  53.2185  86.0892 0001720  69.1839 290.9337 15.08841530 51065,6917.876,95.437,540.931,538.551,0.0
52102.0,STARLINK-3709,PAYLOAD,2023-02-09 20:02:29,15.08841781,0.000147,53.2177,84.3062,81.7687,278.3472,-4.209e-05,-9.58e-06,0.0,0 STARLINK-3709,1 52102U 22029Q   23040.83506897 -.00000958  00000-0 -42090-4 0  9993,2 52102  53.2177  84.3062 0001470  81.7687 278.3472 15.08841781 51124,6917.875,95.437,540.757,538.723,0.0
